#aV2023 12 15  0  0  0.00000000     288 DD+AD WGS84 FIT  NGA
## 2292 432000.00000000   300.00000000 60293 0.0000000000000
+   32     1  2  3  4  5  6  7  8  9 10 11 12 13 14 15 16 17
+         18 19 20 21 22 23 24 25 26 27 28 29 30 31 32  0  0
+          0  0  0  0  0  0  0  0  0  0  0  0  0  0  0  0  0
+          0  0  0  0  0  0  0  0  0  0  0  0  0  0  0  0  0
+          0  0  0  0  0  0  0  0  0  0  0  0  0  0  0  0  0
++         2  2  2  2  2  2  2  2  2  2  2  2  2  2  2  2  2
++         2  2  2  2  2  2  2  2  2  2  2  2  2  2  2  0  0
++         0  0  0  0  0  0  0  0  0  0  0  0  0  0  0  0  0
++         0  0  0  0  0  0  0  0  0  0  0  0  0  0  0  0  0
++         0  0  0  0  0  0  0  0  0  0  0  0  0  0  0  0  0
%c cc cc ccc ccc cccc cccc cccc cccc ccccc ccccc ccccc ccccc
%c cc cc ccc ccc cccc cccc cccc cccc ccccc ccccc ccccc ccccc
%f  0.0000000  0.000000000  0.00000000000  0.000000000000000
%f  0.0000000  0.000000000  0.00000000000  0.000000000000000
%i    0    0    0    0      0      0      0      0         0
%i    0    0    0    0      0      0      0      0         0
/*      NGA, ST. LOUIS,MO.                                  
/*   EPHEMERIS COMPUTED FROM 2 DAYS OF DATA                 
/*   EPOCHA v8 SMOOTHER                                     
/*   G2139 IERS2010 SATIGS SATAPC                           
*  2023 12 15 18 40  0.00000000
P  1 -13449.495452 -13353.938730 -19102.852205    164.026122                    
V  1  23328.085482    683.297079 -16890.931123      0.005766                    
P  2  -6781.651954 -14160.963565 -20956.373860   -515.098875                    
V  2  27677.265958  -1785.313566  -7358.024577      0.053407                    
P  3 -11651.116589 -23912.719344  -1146.481450     56.952007                    
V  3   2395.277646    182.842818 -32109.714535      0.275100                    
P  4  -4555.257458 -17394.559077  19512.006243    240.333988                    
V  4  15001.581421 -19778.461625 -14265.490319      0.100962                    
P  5   3647.671208  23044.918610  12430.508474   -154.242410                    
V  5 -10057.360119 -12747.120461  26297.697764     -0.014255                    
P  6 -22550.311186   6973.201119  12355.006222    476.980253                    
V  6 -15393.078144  -2280.629268 -26864.394433     -0.116333                    
P  7 -25088.085953  -6360.958095   7465.841051    -12.685774                    
V  7   8834.672944  -2148.171247  29315.499705     -0.096101                    
P  8   1571.418586 -22301.891851 -14090.398461   -157.145654                    
V  8  11268.545389 -14180.280040  24248.209357     -0.018847                    
P  9 -13751.254666  -6681.929996  21634.798497     27.785942                    
V  9  14104.793602 -23824.186839   1542.595227      0.117408                    
P 10  15672.235954   -750.883166 -21288.920673    -65.434386                    
V 10  12390.587782  24409.366769   7865.326159     -0.015130                    
P 11 -13205.790673  12345.818799  19464.261552   -502.019188                    
V 11 -24463.822438  -3393.678343 -14511.338668     -0.151240                    
P 12   9557.799190  24778.479536  -1795.226291   -457.760874                    
V 12  -3194.477537   -707.418371 -31669.723413     -0.039554                    
P 13 -12239.775635  22311.049469  -7406.435598    605.958765                    
V 13  -7839.467662   5390.460861  30223.731441      0.039137                    
P 14 -17398.702432  -2995.768278 -19871.436727    271.724622                    
V 14 -10095.312740 -23203.980620  12146.905738      0.105211                    
P 15   1304.066882  22717.330085 -14009.021419    107.257921                    
V 15  -9468.645482  14552.668454  23758.316331      0.038249                    
P 16   3852.048289 -20127.663138  16314.893532   -403.544274                    
V 16  10315.734737  18992.864394  21040.807807      0.072088                    
P 17 -19198.080424   7507.085115 -16392.961200    721.938569                    
V 17  11234.585715 -18478.770832 -20930.587845     -0.006148                    
P 18  25584.155125   5172.212553   5433.212875   -507.073111                    
V 18  -6949.325470   1770.308607  30939.364225     -0.100324                    
P 19 -19947.900049  14205.824244 -10018.072291    412.915821                    
V 19   5846.254139 -11369.276080 -28640.593658      0.052552                    
P 20  -6176.375428  15874.462720  20474.898679    396.494448                    
V 20 -16535.086022 -19910.671360  10299.602400     -0.019112                    
P 21  -3176.989043 -14778.312884 -21383.422112    141.446784                    
V 21  28278.322238  -1257.981783  -2334.138268     -0.011208                    
P 22 -14099.715033   5044.009461 -21492.513508     65.505845                    
V 22 -10672.350087 -26261.219700   1103.240479     -0.067646                    
P 23  18410.721685  11825.526371 -15171.214342    116.686731                    
V 23   8062.207001  17476.104457  23196.623951      0.069264                    
P 24   7050.276107  15233.760717 -21055.169675   -393.998008                    
V 24 -25784.155974   1978.246589  -6923.539713     -0.080646                    
P 25  17031.603686  18569.106175   8493.124119    481.600031                    
V 25   2972.067345  11109.013654 -28847.198317      0.015004                    
P 26   9907.317007 -13092.849197  20680.308734    208.970657                    
V 26  15056.842585  22136.865251   7121.649407     -0.031054                    
P 27  12330.508914 -23148.447273  -2543.629093    -83.354245                    
V 27   4127.412509   -907.606498  31906.779390     -0.047469                    
P 28  23868.833787  -6569.006678   9587.458454    -70.964603                    
V 28  12198.845316   2608.345925 -28512.294945     -0.100085                    
P 29  12345.219235   8376.408954  21931.361731   -609.735194                    
V 29 -16622.996657  22422.062293    693.591571      0.003060                    
P 30 -26480.905905   1162.471783  -3134.176867   -457.080305                    
V 30  -3958.785544  -3553.166490  30664.707088      0.043402                    
P 31  18378.029023 -10363.684162  16169.591260   -226.620559                    
V 31  20624.549931   3095.434349 -20781.877839     -0.003174                    
P 32  18891.379598 -11485.122555 -14374.494634   -596.587582                    
V 32  -7837.974355  17093.487995 -23855.614178     -0.036520                    
EOF
